NORAD_CAT_ID,OBJECT_NAME,OBJECT_TYPE,EPOCH,MEAN_MOTION,ECCENTRICITY,INCLINATION,RA_OF_ASC_NODE,ARG_OF_PERICENTER,MEAN_ANOMALY,BSTAR,MEAN_MOTION_DOT,MEAN_MOTION_DDOT,TLE_LINE0,TLE_LINE1,TLE_LINE2,SEMIMAJOR_AXIS,PERIOD,APOGEE,PERIGEE,DECAYED
56793.0,STARLINK-6052,PAYLOAD,2023-12-16 02:34:30,14.98330085,0.0002302,69.9999,238.3055,259.9795,100.1105,-9.4629e-06,-2.06e-06,0.0,0 STARLINK-6052,1 56793U 23078AC  23350.10729497 -.00000206  00000-0 -94629-5 0  9997,2 56793  69.9999 238.3055 0002302 259.9795 100.1105 14.98330085 30666,6950.193,96.107,573.658,570.458,0.0
56793.0,STARLINK-6052,PAYLOAD,2023-12-16 20:11:59,14.98327798,0.0002266,69.9999,236.4541,256.497,103.5937,-3.8106e-05,-5.47e-06,0.0,0 STARLINK-6052,1 56793U 23078AC  23350.84165728 -.00000547  00000-0 -38106-4 0  9994,2 56793  69.9999 236.4541 0002266 256.4970 103.5937 14.98327798 31030,6950.2,96.107,573.64,570.49,0.0
56793.0,STARLINK-6052,PAYLOAD,2023-12-16 21:48:07,14.98326368,0.000224,70.0003,236.2861,251.9906,108.1009,-3.4162e-05,-5e-06,0.0,0 STARLINK-6052,1 56793U 23078AC  23350.90841858 -.00000500  00000-0 -34162-4 0  9993,2 56793  70.0003 236.2861 0002240 251.9906 108.1009 14.98326368 30787,6950.204,96.107,573.626,570.512,0.0
56793.0,STARLINK-6052,PAYLOAD,2023-12-17 02:36:31,14.98325487,0.0002315,69.9998,235.7805,259.3482,100.7416,-3.5271e-05,-5.14e-06,0.0,0 STARLINK-6052,1 56793U 23078AC  23351.10869929 -.00000514  00000-0 -35271-4 0  9992,2 56793  69.9998 235.7805 0002315 259.3482 100.7416 14.98325487 30818,6950.207,96.107,573.681,570.463,0.0
56793.0,STARLINK-6052,PAYLOAD,2023-12-17 20:13:59,14.98330842,0.0002346,69.9992,233.9267,264.7743,95.3149,6.4916e-05,6.82e-06,0.0,0 STARLINK-6052,1 56793U 23078AC  23351.84305305  .00000682  00000-0  64916-4 0  9998,2 56793  69.9992 233.9267 0002346 264.7743  95.3149 14.98330842 31182,6950.19,96.107,573.686,570.425,0.0
56793.0,STARLINK-6052,PAYLOAD,2023-12-17 21:50:07,14.98332593,0.0002154,69.9998,233.7603,260.1514,99.9402,9.8608e-05,1.084e-05,0.0,0 STARLINK-6052,1 56793U 23078AC  23351.90981091  .00001084  00000-0  98608-4 0  9999,2 56793  69.9998 233.7603 0002154 260.1514  99.9402 14.98332593 30932,6950.185,96.107,573.547,570.553,0.0
56793.0,STARLINK-6052,PAYLOAD,2023-12-18 02:38:31,14.98335038,0.0002141,69.9997,233.2554,256.2701,103.8219,0.00010462,1.156e-05,0.0,0 STARLINK-6052,1 56793U 23078AC  23352.11008835  .00001156  00000-0  10462-3 0  9990,2 56793  69.9997 233.2554 0002141 256.2701 103.8219 14.98335038 30962,6950.177,96.107,573.53,570.554,0.0
56793.0,STARLINK-6052,PAYLOAD,2023-12-18 20:16:02,14.98285784,0.000246,69.9995,231.4037,253.5848,106.5041,0.00052775,6.202e-05,0.0,0 STARLINK-6052,1 56793U 23078AC  23352.84446821  .00006202  00000-0  52775-3 0  9991,2 56793  69.9995 231.4037 0002460 253.5848 106.5041 14.98285784 31339,6950.33,96.11,573.904,570.485,0.0
56793.0,STARLINK-6052,PAYLOAD,2023-12-18 21:52:10,14.98296016,0.0002516,69.9996,231.2356,250.008,110.0809,0.00022187,2.553e-05,0.0,0 STARLINK-6052,1 56793U 23078AC  23352.91123107  .00002553  00000-0  22187-3 0  9997,2 56793  69.9996 231.2356 0002516 250.0080 110.0809 14.98296016 31088,6950.298,96.109,573.912,570.414,0.0
56793.0,STARLINK-6052,PAYLOAD,2023-12-19 01:04:25,14.98320625,0.000276,69.9995,230.8973,281.3631,78.7218,-3.3678e-05,-4.95e-06,0.0,0 STARLINK-6052,1 56793U 23078AC  23353.04474497 -.00000495  00000-0 -33678-4 0  9996,2 56793  69.9995 230.8973 0002760 281.3631  78.7218 14.98320625 31366,6950.222,96.108,574.005,570.169,0.0
56793.0,STARLINK-6052,PAYLOAD,2023-12-19 20:18:02,14.98331637,0.0002481,69.999,228.8772,268.0591,92.0284,-3.3838e-05,-4.97e-06,0.0,0 STARLINK-6052,1 56793U 23078AC  23353.84585932 -.00000497  00000-0 -33838-4 0  9991,2 56793  69.9990 228.8772 0002481 268.0591  92.0284 14.98331637 31482,6950.188,96.107,573.777,570.328,0.0
56793.0,STARLINK-6052,PAYLOAD,2023-12-20 01:06:26,14.98333637,0.0002273,69.9991,228.373,279.1908,80.8994,-9.5206e-06,-2.07e-06,0.0,0 STARLINK-6052,1 56793U 23078AC  23354.04613842 -.00000207  00000-0 -95206-5 0  9993,2 56793  69.9991 228.3730 0002273 279.1908  80.8994 14.98333637 31256,6950.182,96.107,573.626,570.467,0.0
56793.0,STARLINK-6052,PAYLOAD,2023-12-20 20:20:03,14.98327632,0.0002465,69.9988,226.3521,255.8169,104.2717,9.7379e-05,1.069e-05,0.0,0 STARLINK-6052,1 56793U 23078AC  23354.84725761  .00001069  00000-0  97379-4 0  9992,2 56793  69.9988 226.3521 0002465 255.8169 104.2717 14.98327632 31635,6950.2,96.107,573.778,570.352,0.0
56793.0,STARLINK-6052,PAYLOAD,2023-12-20 21:56:11,14.98327749,0.0002464,69.9988,226.1838,256.0803,104.0082,9.6584e-05,1.06e-05,0.0,0 STARLINK-6052,1 56793U 23078AC  23354.91401766  .00001060  00000-0  96584-4 0  9994,2 56793  69.9988 226.1838 0002464 256.0803 104.0082 14.98327749 31385,6950.2,96.107,573.777,570.352,0.0
56793.0,STARLINK-6052,PAYLOAD,2023-12-21 01:08:26,14.98331685,0.000239,69.9991,225.8478,251.8453,108.2446,0.00014059,1.585e-05,0.0,0 STARLINK-6052,1 56793U 23078AC  23355.04753369  .00001585  00000-0  14059-3 0  9996,2 56793  69.9991 225.8478 0002390 251.8453 108.2446 14.98331685 31404,6950.188,96.107,573.714,570.392,0.0
56793.0,STARLINK-6052,PAYLOAD,2023-12-21 21:58:12,14.98328288,0.0002217,69.9997,223.6611,246.9811,113.1114,-2.0708e-05,-3.4e-06,0.0,0 STARLINK-6052,1 56793U 23078AC  23355.91542029 -.00000340  00000-0 -20708-4 0  9990,2 56793  69.9997 223.6611 0002217 246.9811 113.1114 14.98328288 31532,6950.198,96.107,573.604,570.522,0.0
56793.0,STARLINK-6052,PAYLOAD,2023-12-22 01:10:28,14.98328126,0.0002222,69.9996,223.3245,248.862,111.2302,-2.3812e-05,-3.77e-06,0.0,0 STARLINK-6052,1 56793U 23078AC  23356.04894062 -.00000377  00000-0 -23812-4 0  9991,2 56793  69.9996 223.3245 0002222 248.8620 111.2302 14.98328126 31816,6950.199,96.107,573.608,570.519,0.0
56793.0,STARLINK-6052,PAYLOAD,2023-12-22 22:00:13,14.98332768,0.0002228,69.9995,221.1363,256.5407,103.5504,-4.6474e-05,-6.47e-06,0.0,0 STARLINK-6052,1 56793U 23078AC  23356.91681764 -.00000647  00000-0 -46474-4 0  9999,2 56793  69.9995 221.1363 0002228 256.5407 103.5504 14.98332768 31687,6950.184,96.107,573.598,570.501,0.0
56793.0,STARLINK-6052,PAYLOAD,2023-12-23 01:12:29,14.98333027,0.0002226,69.9995,220.7997,257.3072,102.7838,-4.1402e-05,-5.87e-06,0.0,0 STARLINK-6052,1 56793U 23078AC  23357.05033713 -.00000587  00000-0 -41402-4 0  9999,2 56793  69.9995 220.7997 0002226 257.3072 102.7838 14.98333027 31961,6950.184,96.107,573.596,570.501,0.0
56793.0,STARLINK-6052,PAYLOAD,2023-12-23 22:02:13,14.98331323,0.0002265,69.9993,218.6109,260.7868,99.3034,4.2977e-05,4.2e-06,0.0,0 STARLINK-6052,1 56793U 23078AC  23357.91821478  .00000420  00000-0  42977-4 0  9999,2 56793  69.9993 218.6109 0002265 260.7868  99.3034 14.98331323 31836,6950.189,96.107,573.628,570.48,0.0
56793.0,STARLINK-6052,PAYLOAD,2023-12-24 01:14:29,14.98331937,0.0002264,69.9993,218.2742,261.7332,98.357,4.8e-05,4.8e-06,0.0,0 STARLINK-6052,1 56793U 23078AC  23358.05173411  .00000480  00000-0  48000-4 0  9991,2 56793  69.9993 218.2742 0002264 261.7332  98.3570 14.98331937 32118,6950.187,96.107,573.625,570.478,0.0
56793.0,STARLINK-6052,PAYLOAD,2023-12-24 14:03:34,14.98330653,0.0002188,69.9994,216.9278,259.7505,100.3408,1.1482e-05,4.4e-07,0.0,0 STARLINK-6052,1 56793U 23078AC  23358.58581533  .00000044  00000-0  11482-4 0  9997,2 56793  69.9994 216.9278 0002188 259.7505 100.3408 14.98330653 31939,6950.191,96.107,573.577,570.535,0.0
56793.0,STARLINK-6052,PAYLOAD,2023-12-24 22:04:14,14.98363548,0.000152,69.9993,216.0863,256.296,103.8029,-0.00052139,-6.313e-05,0.0,0 STARLINK-6052,1 56793U 23078AC  23358.91960898 -.00006313  00000-0 -52139-3 0  9999,2 56793  69.9993 216.0863 0001520 256.2960 103.8029 14.98363548 31986,6950.089,96.105,573.011,570.898,0.0
56793.0,STARLINK-6052,PAYLOAD,2023-12-25 01:16:29,14.98384134,0.0001699,69.9994,215.7496,265.5367,94.5598,-0.00085783,-0.00010327,0.0,0 STARLINK-6052,1 56793U 23078AC  23359.05312120 -.00010327  00000-0 -85783-3 0  9995,2 56793  69.9994 215.7496 0001699 265.5367  94.5598 14.98384134 32269,6950.025,96.104,573.071,570.71,0.0
56793.0,STARLINK-6052,PAYLOAD,2023-12-25 14:05:35,14.98330083,0.0002157,69.9994,214.403,252.9221,107.1702,-2.8196e-05,-4.29e-06,0.0,0 STARLINK-6052,1 56793U 23078AC  23359.58721512 -.00000429  00000-0 -28196-4 0  9990,2 56793  69.9994 214.4030 0002157 252.9221 107.1702 14.98330083 32080,6950.193,96.107,573.557,570.558,0.0
56793.0,STARLINK-6052,PAYLOAD,2023-12-25 18:53:59,14.98330561,0.0002152,69.9995,213.8979,252.3892,107.7032,-1.9831e-05,-3.29e-06,0.0,0 STARLINK-6052,1 56793U 23078AC  23359.78749436 -.00000329  00000-0 -19831-4 0  9992,2 56793  69.9995 213.8979 0002152 252.3892 107.7032 14.98330561 32374,6950.191,96.107,573.552,570.56,0.0
56793.0,STARLINK-6052,PAYLOAD,2023-12-25 22:06:15,14.98328895,0.0002173,69.9995,213.5614,253.0883,107.0038,-3.9058e-05,-5.59e-06,0.0,0 STARLINK-6052,1 56793U 23078AC  23359.92101595 -.00000559  00000-0 -39058-4 0  9994,2 56793  69.9995 213.5614 0002173 253.0883 107.0038 14.98328895 32138,6950.196,96.107,573.572,570.551,0.0
56793.0,STARLINK-6052,PAYLOAD,2023-12-26 14:07:33,14.98361287,0.0002308,69.9997,211.8784,262.5494,97.5403,0.00029037,3.376e-05,0.0,0 STARLINK-6052,1 56793U 23078AC  23360.58857820  .00003376  00000-0  29037-3 0  9990,2 56793  69.9997 211.8784 0002308 262.5494  97.5403 14.98361287 32234,6950.096,96.105,573.565,570.357,0.0
56793.0,STARLINK-6052,PAYLOAD,2023-12-26 18:55:59,14.98329325,0.0002429,69.9996,211.3734,244.7624,115.3283,-8.641e-05,-1.124e-05,0.0,0 STARLINK-6052,1 56793U 23078AC  23360.78888289 -.00001124  00000-0 -86410-4 0  9995,2 56793  69.9996 211.3734 0002429 244.7624 115.3283 14.98329325 32528,6950.195,96.107,573.748,570.372,0.0
56793.0,STARLINK-6052,PAYLOAD,2023-12-26 22:08:15,14.9832728,0.0002544,69.9996,211.0368,244.2111,115.8786,-0.00010741,-1.374e-05,0.0,0 STARLINK-6052,1 56793U 23078AC  23360.92240453 -.00001374  00000-0 -10741-3 0  9996,2 56793  69.9996 211.0368 0002544 244.2111 115.8786 14.98327280 32286,6950.201,96.107,573.834,570.298,0.0
